NORAD_CAT_ID,OBJECT_NAME,OBJECT_TYPE,EPOCH,MEAN_MOTION,ECCENTRICITY,INCLINATION,RA_OF_ASC_NODE,ARG_OF_PERICENTER,MEAN_ANOMALY,BSTAR,MEAN_MOTION_DOT,MEAN_MOTION_DDOT,TLE_LINE0,TLE_LINE1,TLE_LINE2,SEMIMAJOR_AXIS,PERIOD,APOGEE,PERIGEE,DECAYED
49427.0,STARLINK-3131,PAYLOAD,2022-01-25 14:00:01,15.12058851,0.0001537,53.2175,141.3282,59.3175,64.3678,-0.040841,-0.00665162,0.0,0 STARLINK-3131,1 49427U 21104V   22025.58334491 -.00665162  00000-0 -40841-1 0  9998,2 49427  53.2175 141.3282 0001537  59.3175  64.3678 15.12058851  3618,6908.059,95.234,530.986,528.862,0.0
49427.0,STARLINK-3131,PAYLOAD,2022-01-25 22:00:00,15.11591545,0.0001328,53.2173,139.8258,84.9273,53.9366,-0.041259,-0.00663349,0.0,0 STARLINK-3131,1 49427U 21104V   22025.91667824 -.00663349  00000-0 -41259-1 0  9993,2 49427  53.2173 139.8258 0001328  84.9273  53.9366 15.11591545  3666,6909.483,95.264,532.265,530.43,0.0
49427.0,STARLINK-3131,PAYLOAD,2022-01-26 14:00:01,15.10658447,0.0001568,53.2174,136.8257,61.8008,105.7371,-0.042396,-0.00664115,0.0,0 STARLINK-3131,1 49427U 21104V   22026.58334491 -.00664115  00000-0 -42396-1 0  9993,2 49427  53.2174 136.8257 0001568  61.8008 105.7371 15.10658447 12812,6912.328,95.323,535.2769999999998,533.109,0.0
49427.0,STARLINK-3131,PAYLOAD,2022-01-26 21:12:39,15.11490617,0.0001617,53.2174,135.4595,107.5849,252.5321,-0.011644,-0.00194355,0.0,0 STARLINK-3131,1 49427U 21104V   22026.88378807 -.00194355  00000-0 -11644-1 0  9991,2 49427  53.2174 135.4595 0001617 107.5849 252.5321 15.11490617 11761,6909.79,95.27,532.773,530.538,0.0
49427.0,STARLINK-3131,PAYLOAD,2022-01-27 13:06:00,15.10438035,0.0001786,53.2172,132.4909,87.1738,272.946,-0.011338,-0.00184079,0.0,0 STARLINK-3131,1 49427U 21104V   22027.54584181 -.00184079  00000-0 -11338-1 0  9991,2 49427  53.2172 132.4909 0001786  87.1738 272.9460 15.10438035 11868,6913.0,95.337,536.1,533.63,0.0
49427.0,STARLINK-3131,PAYLOAD,2022-01-27 21:02:44,15.101231099999998,0.0002137,53.2164,131.0018,155.1769,204.9326,-0.011935,-0.00191878,0.0,0 STARLINK-3131,1 49427U 21104V   22027.87690871 -.00191878  00000-0 -11935-1 0  9999,2 49427  53.2164 131.0018 0002137 155.1769 204.9326 15.10123110 11913,6913.9609999999975,95.356,537.304,534.349,0.0
49427.0,STARLINK-3131,PAYLOAD,2022-01-27 22:00:00,15.08837371,0.0001369,53.2172,130.8349,80.15899999999998,138.0058,-7.0091e-05,-1.403e-05,0.0,0 STARLINK-3131,1 49427U 21104V   22027.91667824 -.00001403  00000-0 -70091-4 0  9991,2 49427  53.2172 130.8349 0001369  80.1590 138.0058 15.08837371 13011,6917.888000000001,95.438,540.7,538.806,0.0
49427.0,STARLINK-3131,PAYLOAD,2022-01-28 10:00:00,15.08862371,0.0001095999999999,53.2149,128.5813,62.3629,353.2225,-0.0018503,-0.00029632,0.0,0 STARLINK-3131,1 49427U 21104V   22028.41667824 -.00029632  00000-0 -18503-2 0  9999,2 49427  53.2149 128.5813 0001096  62.3629 353.2225 15.08862371 13090,6917.812,95.436,540.435,538.919,0.0
49427.0,STARLINK-3131,PAYLOAD,2022-01-28 14:00:01,15.08841814,0.0001193,53.2149,127.8339,55.7965,185.5989,0.00021105,3.073e-05,0.0,0 STARLINK-3131,1 49427U 21104V   22028.58334491  .00003073  00000-0  21105-3 0  9990,2 49427  53.2149 127.8339 0001193  55.7965 185.5989 15.08841814  3622,6917.875,95.437,540.565,538.915,0.0
49427.0,STARLINK-3131,PAYLOAD,2022-01-28 22:00:00,15.08875631,0.0001114,53.2151,126.3367,54.3971,198.6061,-0.0018694,-0.00029945,0.0,0 STARLINK-3131,1 49427U 21104V   22028.91667824 -.00029945  00000-0 -18694-2 0  9992,2 49427  53.2151 126.3367 0001114  54.3971 198.6061 15.08875631 13165,6917.771,95.435,540.4069999999998,538.866,0.0
49427.0,STARLINK-3131,PAYLOAD,2022-01-29 14:00:01,15.08865275,0.0001337,53.2158,123.3446,54.6094,221.6548,-0.0015732,-0.00025255,0.0,0 STARLINK-3131,1 49427U 21104V   22029.58334491 -.00025255  00000-0 -15732-2 0  9997,2 49427  53.2158 123.3446 0001337  54.6094 221.6548 15.08865275 13264,6917.803000000001,95.436,540.5930000000002,538.743,0.0
49427.0,STARLINK-3131,PAYLOAD,2022-01-29 22:00:00,15.08879673,0.0001315,53.2159,121.8474,57.0978,230.7797,-0.0048682,-0.0007702,0.0,0 STARLINK-3131,1 49427U 21104V   22029.91667824 -.00077020  00000-0 -48682-2 0  9990,2 49427  53.2159 121.8474 0001315  57.0978 230.7797 15.08879673  3626,6917.759,95.435,540.534,538.714,0.0
49427.0,STARLINK-3131,PAYLOAD,2022-01-30 14:00:01,15.08834211,0.000151,53.2164,118.8557,57.3431,253.7401,0.00076744,0.00011945,0.0,0 STARLINK-3131,1 49427U 21104V   22030.58334491  .00011945  00000-0  76744-3 0  9999,2 49427  53.2164 118.8557 0001510  57.3431 253.7401 15.08834211 13418,6917.898,95.438,540.808,538.7180000000002,0.0
49427.0,STARLINK-3131,PAYLOAD,2022-01-30 22:00:00,15.08856964,0.0001445,53.2162,117.3584,59.8851,262.7853,-0.0040714,-0.00064534,0.0,0 STARLINK-3131,1 49427U 21104V   22030.91667824 -.00064534  00000-0 -40714-2 0  9996,2 49427  53.2162 117.3584 0001445  59.8851 262.7853 15.08856964  3622,6917.829000000002,95.436,540.693,538.694,0.0
49427.0,STARLINK-3131,PAYLOAD,2022-01-31 06:00:00,15.08825028,0.0001433,53.2166,115.8615,67.7602,266.4963,0.0010948,0.00017172,0.0,0 STARLINK-3131,1 49427U 21104V   22031.25001157  .00017172  00000-0  10948-2 0  9995,2 49427  53.2166 115.8615 0001433  67.7602 266.4963 15.08825028 13512,6917.926,95.439,540.7819999999998,538.8,0.0
49427.0,STARLINK-3131,PAYLOAD,2022-01-31 14:00:01,15.08820787,0.000157,53.2165,114.3669,58.8295,287.0779,0.0012899,0.0002029,0.0,0 STARLINK-3131,1 49427U 21104V   22031.58335648  .00020290  00000-0  12899-2 0  9998,2 49427  53.2165 114.3669 0001570  58.8295 287.0779 15.08820787  3627,6917.939,95.439,540.89,538.7180000000002,0.0
49427.0,STARLINK-3131,PAYLOAD,2022-01-31 22:00:01,15.08850897,0.0001460999999999,53.2161,112.8694,61.2258,296.2643,-0.0014623,-0.00023492,0.0,0 STARLINK-3131,1 49427U 21104V   22031.91668981 -.00023492  00000-0 -14623-2 0  9990,2 49427  53.2161 112.8694 0001461  61.2258 296.2643 15.08850897  3616,6917.847,95.437,540.7230000000002,538.701,0.0
49427.0,STARLINK-3131,PAYLOAD,2022-02-01 14:00:01,15.08856862,0.0001503,53.216,109.878,57.7487,322.9593,-0.0010338,-0.00016711,0.0,0 STARLINK-3131,1 49427U 21104V   22032.58335648 -.00016711  00000-0 -10338-2 0  9990,2 49427  53.2160 109.8780 0001503  57.7487 322.9593 15.08856862 13720,6917.829000000002,95.436,540.734,538.654,0.0
49427.0,STARLINK-3131,PAYLOAD,2022-02-01 22:00:00,15.08845742,0.0001372,53.2156,108.3803,60.295,331.9611,-0.0011801,-0.00019023,0.0,0 STARLINK-3131,1 49427U 21104V   22032.91667824 -.00019023  00000-0 -11801-2 0  9996,2 49427  53.2156 108.3803 0001372  60.2950 331.9611 15.08845742  3616,6917.863,95.437,540.677,538.779,0.0
49427.0,STARLINK-3131,PAYLOAD,2022-02-02 14:00:01,15.08800913,0.0001565999999999,53.2154,105.389,58.4597,356.971,0.0020923,0.00033132,0.0,0 STARLINK-3131,1 49427U 21104V   22033.58334491  .00033132  00000-0  20923-2 0  9991,2 49427  53.2154 105.3890 0001566  58.4597 356.9710 15.08800913  3616,6918.0,95.44,540.948,538.7819999999998,0.0
49427.0,STARLINK-3131,PAYLOAD,2022-02-02 22:00:00,15.08828352,0.0001467,53.215,103.891,62.2621,4.7343,-0.00056525,-9.27e-05,0.0,0 STARLINK-3131,1 49427U 21104V   22033.91667824 -.00009270  00000-0 -56525-3 0  9993,2 49427  53.2150 103.8910 0001467  62.2621   4.7343 15.08828352 13921,6917.916,95.438,540.7959999999998,538.766,0.0
49427.0,STARLINK-3131,PAYLOAD,2022-02-03 14:00:01,15.08817285,0.0001603,53.2149,100.8996,56.9506,33.2197,0.0026116,0.00041495,0.0,0 STARLINK-3131,1 49427U 21104V   22034.58334491  .00041495  00000-0  26116-2 0  9993,2 49427  53.2149 100.8996 0001603  56.9506  33.2197 15.08817285 14023,6917.95,95.439,540.924,538.706,0.0
49427.0,STARLINK-3131,PAYLOAD,2022-02-03 22:00:01,15.08848546,0.0001504,53.2147,99.4014,60.6233,41.2054,4.6064e-05,4.45e-06,0.0,0 STARLINK-3131,1 49427U 21104V   22034.91668981  .00000445  00000-0  46064-4 0  9990,2 49427  53.2147  99.4014 0001504  60.6233  41.2054 15.08848546  3612,6917.854,95.437,540.76,538.679,0.0
49427.0,STARLINK-3131,PAYLOAD,2022-02-04 14:00:01,15.088290099999998,0.0001615,53.2148,96.4097,52.989,72.0912,0.0030945,0.00049291,0.0,0 STARLINK-3131,1 49427U 21104V   22035.58335648  .00049291  00000-0  30945-2 0  9996,2 49427  53.2148  96.4097 0001615  52.9890  72.0912 15.08829010 14170,6917.9140000000025,95.438,540.896,538.6619999999998,0.0
49427.0,STARLINK-3131,PAYLOAD,2022-02-04 22:00:00,15.08857962,0.0001522,53.2148,94.9116,57.9627,78.6576,-0.0031844,-0.00050637,0.0,0 STARLINK-3131,1 49427U 21104V   22035.91667824 -.00050637  00000-0 -31844-2 0  9994,2 49427  53.2148  94.9116 0001522  57.9627  78.6576 15.08857962 14226,6917.825,95.436,540.743,538.638,0.0
49427.0,STARLINK-3131,PAYLOAD,2022-02-05 14:00:01,15.08803596,0.0001682,53.2151,91.9201,51.3123,108.4924,0.0038932,0.00062157,0.0,0 STARLINK-3131,1 49427U 21104V   22036.58334491  .00062157  00000-0  38932-2 0  9992,2 49427  53.2151  91.9201 0001682  51.3123 108.4924 15.08803596 14322,6917.9919999999975,95.44,541.02,538.693,0.0
49427.0,STARLINK-3131,PAYLOAD,2022-02-06 06:00:00,15.08836883,0.0001525,53.2155,88.9256,55.7942,127.1731,-0.0010216,-0.00016509,0.0,0 STARLINK-3131,1 49427U 21104V   22037.25001157 -.00016509  00000-0 -10216-2 0  9994,2 49427  53.2155  88.9256 0001525  55.7942 127.1731 15.08836883 14425,6917.89,95.438,540.81,538.7,0.0
49427.0,STARLINK-3131,PAYLOAD,2022-02-06 14:00:01,15.08795012,0.0001592,53.2155,87.4305,46.0917,148.5193,0.0014550999999999,0.00022917,0.0,0 STARLINK-3131,1 49427U 21104V   22037.58335648  .00022917  00000-0  14551-2 0  9999,2 49427  53.2155  87.4305 0001592  46.0917 148.5193 15.08795012  3574,6918.018,95.44,540.984,538.7819999999998,0.0
49427.0,STARLINK-3131,PAYLOAD,2022-02-06 22:00:00,15.08793353,0.0001403,53.2157,85.9324,50.573,155.5319,0.0015106,0.00023804,0.0,0 STARLINK-3131,1 49427U 21104V   22037.91667824  .00023804  00000-0  15106-2 0  9993,2 49427  53.2157  85.9324 0001403  50.5730 155.5319 15.08793353  3602,6918.023,95.441,540.859,538.9169999999998,0.0
